[
  {
    "COMMENT": "GENERATED VIA SPACETRACK.ORG API",
    "ORIGINATOR": "18 SPCS",
    "NORAD_CAT_ID": "33105",
    "OBJECT_NAME": "JASON 2",
    "OBJECT_TYPE": "PAYLOAD",
    "CLASSIFICATION_TYPE": "U",
    "INTLDES": "08032A",
    "EPOCH": "2023-07-24 05:04:54",
    "EPOCH_MICROSECONDS": "621120",
    "MEAN_MOTION": "12.87661076",
    "ECCENTRICITY": "0.0008174",
    "INCLINATION": "66.0395",
    "RA_OF_ASC_NODE": "117.5974",
    "ARG_OF_PERICENTER": "268.8578",
    "MEAN_ANOMALY": "244.5916",
    "EPHEMERIS_TYPE": "0",
    "ELEMENT_SET_NO": "999",
    "REV_AT_EPOCH": "70735",
    "BSTAR": "-0.000022541",
    "MEAN_MOTION_DOT": "-0.00000068",
    "MEAN_MOTION_DDOT": "0",
    "FILE": "3963756",
    "TLE_LINE0": "0 JASON 2",
    "TLE_LINE1": "1 33105U 08032A   23205.21174330 -.00000068  00000-0 -22541-4 0  9992",
    "TLE_LINE2": "2 33105  66.0395 117.5974 0008174 268.8578 244.5916 12.87661076707358",
    "OBJECT_ID": "2008-032A",
    "OBJECT_NUMBER": "33105",
    "SEMIMAJOR_AXIS": "7688.958",
    "PERIOD": "111.831",
    "APOGEE": "1317.107",
    "PERIGEE": "1304.538",
    "DECAYED": "0"
  },
  {
    "COMMENT": "GENERATED VIA SPACETRACK.ORG API",
    "ORIGINATOR": "18 SPCS",
    "NORAD_CAT_ID": "33105",
    "OBJECT_NAME": "JASON 2",
    "OBJECT_TYPE": "PAYLOAD",
    "CLASSIFICATION_TYPE": "U",
    "INTLDES": "08032A",
    "EPOCH": "2023-07-26 05:37:25",
    "EPOCH_MICROSECONDS": "406976",
    "MEAN_MOTION": "12.87661288",
    "ECCENTRICITY": "0.000816",
    "INCLINATION": "66.0406",
    "RA_OF_ASC_NODE": "113.3452",
    "ARG_OF_PERICENTER": "268.8749",
    "MEAN_ANOMALY": "259.4747",
    "EPHEMERIS_TYPE": "0",
    "ELEMENT_SET_NO": "999",
    "REV_AT_EPOCH": "70761",
    "BSTAR": "0.000035223",
    "MEAN_MOTION_DOT": "-0.00000053",
    "MEAN_MOTION_DDOT": "0",
    "FILE": "3963761",
    "TLE_LINE0": "0 JASON 2",
    "TLE_LINE1": "1 33105U 08032A   23207.23432184 -.00000053  00000-0  35223-4 0  9994",
    "TLE_LINE2": "2 33105  66.0406 113.3452 0008160 268.8749 259.4747 12.87661288707612",
    "OBJECT_ID": "2008-032A",
    "OBJECT_NUMBER": "33105",
    "SEMIMAJOR_AXIS": "7688.957",
    "PERIOD": "111.831",
    "APOGEE": "1317.096",
    "PERIGEE": "1304.548",
    "DECAYED": "0"
  },
  {
    "COMMENT": "GENERATED VIA SPACETRACK.ORG API",
    "ORIGINATOR": "18 SPCS",
    "NORAD_CAT_ID": "33105",
    "OBJECT_NAME": "JASON 2",
    "OBJECT_TYPE": "PAYLOAD",
    "CLASSIFICATION_TYPE": "U",
    "INTLDES": "08032A",
    "EPOCH": "2023-07-26 17:55:01",
    "EPOCH_MICROSECONDS": "317792",
    "MEAN_MOTION": "12.87661313",
    "ECCENTRICITY": "0.0008158",
    "INCLINATION": "66.0406",
    "RA_OF_ASC_NODE": "112.2683",
    "ARG_OF_PERICENTER": "268.8913",
    "MEAN_ANOMALY": "113.6668",
    "EPHEMERIS_TYPE": "0",
    "ELEMENT_SET_NO": "999",
    "REV_AT_EPOCH": "70768",
    "BSTAR": "0.000010442",
    "MEAN_MOTION_DOT": "-0.0000006",
    "MEAN_MOTION_DDOT": "0",
    "FILE": "3963989",
    "TLE_LINE0": "0 JASON 2",
    "TLE_LINE1": "1 33105U 08032A   23207.74654303 -.00000060  00000-0  10442-4 0  9993",
    "TLE_LINE2": "2 33105  66.0406 112.2683 0008158 268.8913 113.6668 12.87661313707685",
    "OBJECT_ID": "2008-032A",
    "OBJECT_NUMBER": "33105",
    "SEMIMAJOR_AXIS": "7688.957",
    "PERIOD": "111.831",
    "APOGEE": "1317.094",
    "PERIGEE": "1304.549",
    "DECAYED": "0"
  },
  {
    "COMMENT": "GENERATED VIA SPACETRACK.ORG API",
    "ORIGINATOR": "18 SPCS",
    "NORAD_CAT_ID": "33105",
    "OBJECT_NAME": "JASON 2",
    "OBJECT_TYPE": "PAYLOAD",
    "CLASSIFICATION_TYPE": "U",
    "INTLDES": "08032A",
    "EPOCH": "2023-07-27 03:53:51",
    "EPOCH_MICROSECONDS": "309024",
    "MEAN_MOTION": "12.87661313",
    "ECCENTRICITY": "0.0008154",
    "INCLINATION": "66.0406",
    "RA_OF_ASC_NODE": "111.394",
    "ARG_OF_PERICENTER": "268.7648",
    "MEAN_ANOMALY": "241.3391",
    "EPHEMERIS_TYPE": "0",
    "ELEMENT_SET_NO": "999",
    "REV_AT_EPOCH": "70773",
    "BSTAR": "-0.0000034474",
    "MEAN_MOTION_DOT": "-0.00000063",
    "MEAN_MOTION_DDOT": "0",
    "FILE": "3964647",
    "TLE_LINE0": "0 JASON 2",
    "TLE_LINE1": "1 33105U 08032A   23208.16239941 -.00000063  00000-0 -34474-5 0  9993",
    "TLE_LINE2": "2 33105  66.0406 111.3940 0008154 268.7648 241.3391 12.87661313707739",
    "OBJECT_ID": "2008-032A",
    "OBJECT_NUMBER": "33105",
    "SEMIMAJOR_AXIS": "7688.957",
    "PERIOD": "111.831",
    "APOGEE": "1317.091",
    "PERIGEE": "1304.552",
    "DECAYED": "0"
  },
  {
    "COMMENT": "GENERATED VIA SPACETRACK.ORG API",
    "ORIGINATOR": "18 SPCS",
    "NORAD_CAT_ID": "33105",
    "OBJECT_NAME": "JASON 2",
    "OBJECT_TYPE": "PAYLOAD",
    "CLASSIFICATION_TYPE": "U",
    "INTLDES": "08032A",
    "EPOCH": "2023-07-27 22:08:24",
    "EPOCH_MICROSECONDS": "601344",
    "MEAN_MOTION": "12.87661346",
    "ECCENTRICITY": "0.0008154",
    "INCLINATION": "66.0406",
    "RA_OF_ASC_NODE": "109.7958",
    "ARG_OF_PERICENTER": "268.7659",
    "MEAN_ANOMALY": "164.5306",
    "EPHEMERIS_TYPE": "0",
    "ELEMENT_SET_NO": "999",
    "REV_AT_EPOCH": "70783",
    "BSTAR": "-0.000027424",
    "MEAN_MOTION_DOT": "-0.00000069",
    "MEAN_MOTION_DDOT": "0",
    "FILE": "3964919",
    "TLE_LINE0": "0 JASON 2",
    "TLE_LINE1": "1 33105U 08032A   23208.92250696 -.00000069  00000-0 -27424-4 0  9999",
    "TLE_LINE2": "2 33105  66.0406 109.7958 0008154 268.7659 164.5306 12.87661346707830",
    "OBJECT_ID": "2008-032A",
    "OBJECT_NUMBER": "33105",
    "SEMIMAJOR_AXIS": "7688.956",
    "PERIOD": "111.831",
    "APOGEE": "1317.091",
    "PERIGEE": "1304.552",
    "DECAYED": "0"
  },
  {
    "COMMENT": "GENERATED VIA SPACETRACK.ORG API",
    "ORIGINATOR": "18 SPCS",
    "NORAD_CAT_ID": "33105",
    "OBJECT_NAME": "JASON 2",
    "OBJECT_TYPE": "PAYLOAD",
    "CLASSIFICATION_TYPE": "U",
    "INTLDES": "08032A",
    "EPOCH": "2023-07-28 04:08:29",
    "EPOCH_MICROSECONDS": "152032",
    "MEAN_MOTION": "12.8766136",
    "ECCENTRICITY": "0.000816",
    "INCLINATION": "66.0406",
    "RA_OF_ASC_NODE": "109.27",
    "ARG_OF_PERICENTER": "268.7976",
    "MEAN_ANOMALY": "243.5239",
    "EPHEMERIS_TYPE": "0",
    "ELEMENT_SET_NO": "999",
    "REV_AT_EPOCH": "70786",
    "BSTAR": "-0.000013308",
    "MEAN_MOTION_DOT": "-0.00000066",
    "MEAN_MOTION_DDOT": "0",
    "FILE": "3965518",
    "TLE_LINE0": "0 JASON 2",
    "TLE_LINE1": "1 33105U 08032A   23209.17255963 -.00000066  00000-0 -13308-4 0  9992",
    "TLE_LINE2": "2 33105  66.0406 109.2700 0008160 268.7976 243.5239 12.87661360707861",
    "OBJECT_ID": "2008-032A",
    "OBJECT_NUMBER": "33105",
    "SEMIMAJOR_AXIS": "7688.956",
    "PERIOD": "111.831",
    "APOGEE": "1317.096",
    "PERIGEE": "1304.547",
    "DECAYED": "0"
  },
  {
    "COMMENT": "GENERATED VIA SPACETRACK.ORG API",
    "ORIGINATOR": "18 SPCS",
    "NORAD_CAT_ID": "33105",
    "OBJECT_NAME": "JASON 2",
    "OBJECT_TYPE": "PAYLOAD",
    "CLASSIFICATION_TYPE": "U",
    "INTLDES": "08032A",
    "EPOCH": "2023-07-28 16:29:01",
    "EPOCH_MICROSECONDS": "953024",
    "MEAN_MOTION": "12.87661388",
    "ECCENTRICITY": "0.0008161",
    "INCLINATION": "66.0406",
    "RA_OF_ASC_NODE": "108.1886",
    "ARG_OF_PERICENTER": "268.8149",
    "MEAN_ANOMALY": "107.2047",
    "EPHEMERIS_TYPE": "0",
    "ELEMENT_SET_NO": "999",
    "REV_AT_EPOCH": "70802",
    "BSTAR": "-0.0000060599",
    "MEAN_MOTION_DOT": "-0.00000064",
    "MEAN_MOTION_DDOT": "0",
    "FILE": "3965583",
    "TLE_LINE0": "0 JASON 2",
    "TLE_LINE1": "1 33105U 08032A   23209.68682816 -.00000064  00000-0 -60599-5 0  9992",
    "TLE_LINE2": "2 33105  66.0406 108.1886 0008161 268.8149 107.2047 12.87661388708020",
    "OBJECT_ID": "2008-032A",
    "OBJECT_NUMBER": "33105",
    "SEMIMAJOR_AXIS": "7688.956",
    "PERIOD": "111.831",
    "APOGEE": "1317.096",
    "PERIGEE": "1304.546",
    "DECAYED": "0"
  },
  {
    "COMMENT": "GENERATED VIA SPACETRACK.ORG API",
    "ORIGINATOR": "18 SPCS",
    "NORAD_CAT_ID": "33105",
    "OBJECT_NAME": "JASON 2",
    "OBJECT_TYPE": "PAYLOAD",
    "CLASSIFICATION_TYPE": "U",
    "INTLDES": "08032A",
    "EPOCH": "2023-07-30 19:02:34",
    "EPOCH_MICROSECONDS": "725408",
    "MEAN_MOTION": "12.87661425",
    "ECCENTRICITY": "0.0008157",
    "INCLINATION": "66.0404",
    "RA_OF_ASC_NODE": "103.759",
    "ARG_OF_PERICENTER": "268.7338",
    "MEAN_ANOMALY": "151.7721",
    "EPHEMERIS_TYPE": "0",
    "ELEMENT_SET_NO": "999",
    "REV_AT_EPOCH": "70829",
    "BSTAR": "0.000049014",
    "MEAN_MOTION_DOT": "-0.0000005",
    "MEAN_MOTION_DDOT": "0",
    "FILE": "3967321",
    "TLE_LINE0": "0 JASON 2",
    "TLE_LINE1": "1 33105U 08032A   23211.79345747 -.00000050  00000-0  49014-4 0  9998",
    "TLE_LINE2": "2 33105  66.0404 103.7590 0008157 268.7338 151.7721 12.87661425708299",
    "OBJECT_ID": "2008-032A",
    "OBJECT_NUMBER": "33105",
    "SEMIMAJOR_AXIS": "7688.956",
    "PERIOD": "111.831",
    "APOGEE": "1317.093",
    "PERIGEE": "1304.549",
    "DECAYED": "0"
  },
  {
    "COMMENT": "GENERATED VIA SPACETRACK.ORG API",
    "ORIGINATOR": "18 SPCS",
    "NORAD_CAT_ID": "33105",
    "OBJECT_NAME": "JASON 2",
    "OBJECT_TYPE": "PAYLOAD",
    "CLASSIFICATION_TYPE": "U",
    "INTLDES": "08032A",
    "EPOCH": "2023-08-02 01:39:38",
    "EPOCH_MICROSECONDS": "829888",
    "MEAN_MOTION": "12.8766154",
    "ECCENTRICITY": "0.0008131",
    "INCLINATION": "66.0403",
    "RA_OF_ASC_NODE": "98.9738",
    "ARG_OF_PERICENTER": "268.5792",
    "MEAN_ANOMALY": "260.2724",
    "EPHEMERIS_TYPE": "0",
    "ELEMENT_SET_NO": "999",
    "REV_AT_EPOCH": "70858",
    "BSTAR": "0.00011955",
    "MEAN_MOTION_DOT": "-0.00000032",
    "MEAN_MOTION_DDOT": "0",
    "FILE": "3969260",
    "TLE_LINE0": "0 JASON 2",
    "TLE_LINE1": "1 33105U 08032A   23214.06919942 -.00000032  00000-0  11955-3 0  9997",
    "TLE_LINE2": "2 33105  66.0403  98.9738 0008131 268.5792 260.2724 12.87661540708580",
    "OBJECT_ID": "2008-032A",
    "OBJECT_NUMBER": "33105",
    "SEMIMAJOR_AXIS": "7688.956",
    "PERIOD": "111.831",
    "APOGEE": "1317.073",
    "PERIGEE": "1304.569",
    "DECAYED": "0"
  }
]